NORAD_CAT_ID,OBJECT_NAME,OBJECT_TYPE,EPOCH,MEAN_MOTION,ECCENTRICITY,INCLINATION,RA_OF_ASC_NODE,ARG_OF_PERICENTER,MEAN_ANOMALY,BSTAR,MEAN_MOTION_DOT,MEAN_MOTION_DDOT,TLE_LINE0,TLE_LINE1,TLE_LINE2,SEMIMAJOR_AXIS,PERIOD,APOGEE,PERIGEE,DECAYED
53860.0,STARLINK-4799,PAYLOAD,2022-11-30 14:00:01,15.73160972,0.000382,53.2149,259.7742,3.143,286.1077,0.00055908,0.0007847,0.0,0 STARLINK-4799,1 53860U 22114AU  22334.58335648  .00078470  00000-0  55908-3 0  9994,2 53860  53.2149 259.7742 0003820   3.1430 286.1077 15.73160972  1304,6728.005999999999,91.535,352.44199999999995,347.301,0.0
53860.0,STARLINK-4799,PAYLOAD,2022-11-30 22:00:00,15.73314618,0.0003808,53.216,258.1241,1.984,16.0951,-0.0014678,-0.00202842,0.0,0 STARLINK-4799,1 53860U 22114AU  22334.91667824 -.00202842  00000-0 -14678-2 0  9997,2 53860  53.2160 258.1241 0003808   1.9840  16.0951 15.73314618 12043,6727.568,91.527,351.995,346.872,0.0
53860.0,STARLINK-4799,PAYLOAD,2022-12-01 06:00:00,15.73095462,0.0003992,53.2166,256.4758,0.1158,106.9624,0.0011867,0.00168597,0.0,0 STARLINK-4799,1 53860U 22114AU  22335.25001157  .00168597  00000-0  11867-2 0  9999,2 53860  53.2166 256.4758 0003992   0.1158 106.9624 15.73095462 12106,6728.193,91.539,352.744,347.372,0.0
53860.0,STARLINK-4799,PAYLOAD,2022-12-01 14:00:01,15.73192962,0.0003786,53.2135,254.8256,4.8463,191.1576,0.00024159,0.00033418,0.0,0 STARLINK-4799,1 53860U 22114AU  22335.58334491  .00033418  00000-0  24159-3 0  9997,2 53860  53.2135 254.8256 0003786   4.8463 191.1576 15.73192962  1303,6727.915,91.534,352.327,347.233,0.0
53860.0,STARLINK-4799,PAYLOAD,2022-12-01 22:00:00,15.73253178,0.0003745,53.2138,253.1766,6.0382,278.8753,-0.00023069,-0.00032961,0.0,0 STARLINK-4799,1 53860U 22114AU  22335.91667824 -.00032961  00000-0 -23069-3 0  9996,2 53860  53.2138 253.1766 0003745   6.0382 278.8753 15.73253178  1300,6727.744000000002,91.53,352.12800000000016,347.089,0.0
53860.0,STARLINK-4799,PAYLOAD,2022-12-02 00:00:00,15.73270782,0.0003853,53.2137,252.7648,5.6160000000000005,31.5375,-0.00059639,-0.00083788,0.0,0 STARLINK-4799,1 53860U 22114AU  22336.00001157 -.00083788  00000-0 -59639-3 0  9993,2 53860  53.2137 252.7648 0003853   5.6160  31.5375 15.73270782 12218,6727.693,91.529,352.151,346.966,0.0
53860.0,STARLINK-4799,PAYLOAD,2022-12-02 14:00:01,15.731554199999998,0.0003741,53.2141,249.8767,0.7646,102.0701,0.00058594,0.00082286,0.0,0 STARLINK-4799,1 53860U 22114AU  22336.58334491  .00082286  00000-0  58594-3 0  9995,2 53860  53.2141 249.8767 0003741   0.7646 102.0701 15.73155420  1309,6728.022,91.536,352.404,347.37,0.0
53860.0,STARLINK-4799,PAYLOAD,2022-12-02 16:00:00,15.73158977,0.000374,53.2139,249.4638,1.0662,213.9938,0.00071022,0.001001,0.0,0 STARLINK-4799,1 53860U 22114AU  22336.66667824  .00100100  00000-0  71022-3 0  9990,2 53860  53.2139 249.4638 0003740   1.0662 213.9938 15.73158977 12328,6728.012,91.536,352.39300000000014,347.361,0.0
53860.0,STARLINK-4799,PAYLOAD,2022-12-02 22:00:00,15.73258581,0.0003803,53.2141,248.2278,1.7704,189.9667,-0.00044137,-0.00062294,0.0,0 STARLINK-4799,1 53860U 22114AU  22336.91667824 -.00062294  00000-0 -44137-3 0  9998,2 53860  53.2141 248.2278 0003803   1.7704 189.9667 15.73258581  1301,6727.728,91.53,352.152,347.035,0.0
53860.0,STARLINK-4799,PAYLOAD,2022-12-03 08:00:01,15.73243813,0.0003988,53.2133,246.1664,1.1666,31.7681,-0.00041385,-0.00058442,0.0,0 STARLINK-4799,1 53860U 22114AU  22337.33334491 -.00058442  00000-0 -41385-3 0  9998,2 53860  53.2133 246.1664 0003988   1.1666  31.7681 15.73243813 12420,6727.77,91.531,352.3180000000001,346.952,0.0
53860.0,STARLINK-4799,PAYLOAD,2022-12-03 14:00:01,15.73164294,0.0003669,53.2135,244.9276,3.2985,6.3745,0.00048931,0.00068526,0.0,0 STARLINK-4799,1 53860U 22114AU  22337.58334491  .00068526  00000-0  48931-3 0  9991,2 53860  53.2135 244.9276 0003669   3.2985   6.3745 15.73164294  1309,6727.996999999999,91.535,352.33,347.39300000000014,0.0
53860.0,STARLINK-4799,PAYLOAD,2022-12-03 22:00:00,15.73238493,0.0003763,53.2138,243.2792,4.4351,94.1324,-0.0005779,-0.00081121,0.0,0 STARLINK-4799,1 53860U 22114AU  22337.91667824 -.00081121  00000-0 -57790-3 0  9998,2 53860  53.2138 243.2792 0003763   4.4351  94.1324 15.73238493  1303,6727.785,91.531,352.182,347.119,0.0
53860.0,STARLINK-4799,PAYLOAD,2022-12-04 14:00:01,15.73136166,0.0003744,53.2141,239.979,7.3945,269.0115,0.00073885,0.00104108,0.0,0 STARLINK-4799,1 53860U 22114AU  22338.58334491  .00104108  00000-0  73885-3 0  9995,2 53860  53.2141 239.9790 0003744   7.3945 269.0115 15.73136166  1302,6728.0769999999975,91.537,352.461,347.423,0.0
53860.0,STARLINK-4799,PAYLOAD,2022-12-04 22:00:00,15.73252653,0.0003832,53.214,238.3307,7.8315,357.4657,-0.00025995,-0.00037045,0.0,0 STARLINK-4799,1 53860U 22114AU  22338.91667824 -.00037045  00000-0 -25995-3 0  9997,2 53860  53.2140 238.3307 0003832   7.8315 357.4657 15.73252653  1305,6727.745,91.53,352.18800000000016,347.032,0.0
53860.0,STARLINK-4799,PAYLOAD,2022-12-05 06:00:00,15.73214031,0.0003939,53.2134,236.6818,5.6904,88.5883,0.00019991,0.00027552,0.0,0 STARLINK-4799,1 53860U 22114AU  22339.25001157  .00027552  00000-0  19991-3 0  9995,2 53860  53.2134 236.6818 0003939   5.6904  88.5883 15.73214031 12734,6727.855,91.532,352.37,347.07,0.0
53860.0,STARLINK-4799,PAYLOAD,2022-12-05 14:00:01,15.73173874,0.0003607,53.2134,235.0303,2.9598,180.3554,0.00050726,0.00071113,0.0,0 STARLINK-4799,1 53860U 22114AU  22339.58335648  .00071113  00000-0  50726-3 0  9999,2 53860  53.2134 235.0303 0003607   2.9598 180.3554 15.73173874  1303,6727.97,91.535,352.261,347.408,0.0
53860.0,STARLINK-4799,PAYLOAD,2022-12-05 16:16:26,15.73223862,0.0004356,53.2139,234.5624,14.4598,345.6546,5.6613e-05,7.339e-05,0.0,0 STARLINK-4799,1 53860U 22114AU  22339.67808274  .00007339  00000-0  56613-4 0  9990,2 53860  53.2139 234.5624 0004356  14.4598 345.6546 15.73223862 12793,6727.8269999999975,91.532,352.62300000000016,346.76199999999994,0.0
53860.0,STARLINK-4799,PAYLOAD,2022-12-06 01:25:18,15.7322572,0.0003897,53.2139,232.6762,9.0542,351.0548,5.3116e-05,6.847e-05,0.0,0 STARLINK-4799,1 53860U 22114AU  22340.05924590  .00006847  00000-0  53116-4 0  9992,2 53860  53.2139 232.6762 0003897   9.0542 351.0548 15.73225720 13163,6727.821999999999,91.532,352.309,347.065,0.0
53860.0,STARLINK-4799,PAYLOAD,2022-12-06 19:43:05,15.73191848,0.0003515,53.2144,228.9044,19.2642,340.8511,-4.1221e-05,-6.404e-05,0.0,0 STARLINK-4799,1 53860U 22114AU  22340.82159081 -.00006404  00000-0 -41221-4 0  9997,2 53860  53.2144 228.9044 0003515  19.2642 340.8511 15.73191848 13283,6727.918000000002,91.534,352.148,347.4190000000001,0.0
53860.0,STARLINK-4799,PAYLOAD,2022-12-06 21:14:34,15.73193429,0.0003618,53.2141,228.59,15.753,344.3602,-3.5029e-05,-5.537e-05,0.0,0 STARLINK-4799,1 53860U 22114AU  22340.88511840 -.00005537  00000-0 -35029-4 0  9993,2 53860  53.2141 228.5900 0003618  15.7530 344.3602 15.73193429 12981,6727.9140000000025,91.534,352.213,347.345,0.0
53860.0,STARLINK-4799,PAYLOAD,2022-12-07 01:49:00,15.732153,0.0004422,53.2145,227.6443,14.368,345.7465,9.152e-06,6.6e-06,0.0,0 STARLINK-4799,1 53860U 22114AU  22341.07569514  .00000660  00000-0  91520-5 0  9995,2 53860  53.2145 227.6443 0004422  14.3680 345.7465 15.73215300 13012,6727.852,91.532,352.69199999999995,346.741,0.0
53860.0,STARLINK-4799,PAYLOAD,2022-12-07 09:26:23,15.73232233,0.0004116,53.2141,226.0728,13.5668,346.5462,3.5479000000000004e-05,4.366e-05,0.0,0 STARLINK-4799,1 53860U 22114AU  22341.39332395  .00004366  00000-0  35479-4 0  9992,2 53860  53.2141 226.0728 0004116  13.5668 346.5462 15.73232233 13069,6727.803000000001,91.531,352.43699999999984,346.899,0.0
53860.0,STARLINK-4799,PAYLOAD,2022-12-07 17:03:48,15.73200208,0.0003365,53.2142,224.5018,8.9039,351.204,-7.1236e-06,-1.623e-05,0.0,0 STARLINK-4799,1 53860U 22114AU  22341.71097412 -.00001623  00000-0 -71236-5 0  9993,2 53860  53.2142 224.5018 0003365   8.9039 351.2040 15.73200208 13118,6727.895,91.533,352.024,347.496,0.0
53860.0,STARLINK-4799,PAYLOAD,2022-12-08 02:12:39,15.73247933,0.0003668,53.2141,222.6162,359.5952,0.5064,0.0001001,0.0001348,0.0,0 STARLINK-4799,1 53860U 22114AU  22342.09212348  .00013480  00000-0  10010-3 0  9995,2 53860  53.2141 222.6162 0003668 359.5952   0.5064 15.73247933 13173,6727.759,91.53,352.091,347.156,0.0
53860.0,STARLINK-4799,PAYLOAD,2022-12-08 23:33:23,15.73191091,0.0003985,53.2136,218.215,10.0411,350.0688,-4.307600000000001e-05,-6.666e-05,0.0,0 STARLINK-4799,1 53860U 22114AU  22342.98152062 -.00006666  00000-0 -43076-4 0  9998,2 53860  53.2136 218.2150 0003985  10.0411 350.0688 15.73191091 13310,6727.920999999999,91.534,352.467,347.10400000000016,0.0
53860.0,STARLINK-4799,PAYLOAD,2022-12-09 19:22:36,15.73245299,0.0003851,53.213,214.1298,19.4373,340.6793,0.00010211,0.00013763,0.0,0 STARLINK-4799,1 53860U 22114AU  22343.80737130  .00013763  00000-0  10211-3 0  9993,2 53860  53.2130 214.1298 0003851  19.4373 340.6793 15.73245299 13440,6727.766,91.531,352.222,347.04,0.0
53860.0,STARLINK-4799,PAYLOAD,2022-12-10 04:31:37,15.7298848,0.0004816,53.2127,212.2436,10.3073,349.8045,-0.00055761,-0.00077524,0.0,0 STARLINK-4799,1 53860U 22114AU  22344.18862295 -.00077524  00000-0 -55761-3 0  9992,2 53860  53.2127 212.2436 0004816  10.3073 349.8045 15.72988480 13501,6728.498000000001,91.545,353.60400000000016,347.12300000000016,0.0
53860.0,STARLINK-4799,PAYLOAD,2022-12-10 21:18:12,15.72498307,0.0005583999999999,53.2136,208.7825,314.7117,45.3447,-0.0016009,-0.00213474,0.0,0 STARLINK-4799,1 53860U 22114AU  22344.88764357 -.00213474  00000-0 -16009-2 0  9996,2 53860  53.2136 208.7825 0005584 314.7117  45.3447 15.72498307 13616,6729.896,91.574,355.519,348.004,0.0
53860.0,STARLINK-4799,PAYLOAD,2022-12-10 22:49:16,15.73538852,0.0009649,53.214,208.4678,305.7037,54.3084,0.0012842,0.00186791,0.0,0 STARLINK-4799,1 53860U 22114AU  22344.95088111  .00186791  00000-0  12842-2 0  9991,2 53860  53.2140 208.4678 0009649 305.7037  54.3084 15.73538852 13620,6726.929,91.513,355.285,342.30300000000005,0.0
